ONEWEB-0235             
1 48771U 21045E   24134.52395962  .00000130  00000+0  31178-3 0  9990
2 48771  87.9051  51.3642 0002012 103.5811 256.5543 13.15552175143849
ONEWEB-0242             
1 48772U 21045F   24134.51762616  .00000192  00000+0  47665-3 0  9990
2 48772  87.9050  51.3542 0001813  86.1795 273.9543 13.15550782143882
ONEWEB-0241             
1 48773U 21045G   24134.50495911  .00000046  00000+0  87634-4 0  9990
2 48773  87.9060  51.4004 0002296  88.4147 271.7246 13.15547762143790
ONEWEB-0243             
1 48774U 21045H   24134.46057870  .00000144  00000+0  34839-3 0  9991
2 48774  87.9061  51.3680 0002099  94.2690 265.8680 13.15551814143812
ONEWEB-0222             
1 48775U 21045J   24134.52000991  .00000235  00000+0  59114-3 0  9995
2 48775  87.9049  51.3637 0002140  87.7000 272.4376 13.15548460143864
ONEWEB-0244             
1 48776U 21045K   24134.47008984  .00000123  00000+0  29291-3 0  9999
2 48776  87.9052  51.3567 0001764  84.8407 275.2925 13.15548029144426
ONEWEB-0247             
1 48777U 21045L   24134.46692575  .00000139  00000+0  33389-3 0  9994
2 48777  87.9059  51.3955 0002050 112.5699 247.5648 13.15547051143861
ONEWEB-0245             
1 48778U 21045M   24134.76640309  .00000185  00000+0  45710-3 0  9998
2 48778  87.9054  51.3278 0002212  83.4946 276.6436 13.15547754145002
